KUIPER-00128            
1 65957U 25228L   25315.01530168  .00043770  00000+0  12776-2 0  9996
2 65957  51.8816 173.4279 0007063 245.3966 114.6284 15.34874025  5546
KUIPER-00129            
1 65958U 25228M   25315.01456019  .00059808  00000+0  17215-2 0  9991
2 65958  51.8810 173.4211 0005698 233.2393 126.8071 15.35182084  5546
KUIPER-00130            
1 65959U 25228N   25315.21412799  .00081759  00000+0  23698-2 0  9993
2 65959  51.8744 172.4989 0005468 239.3488 120.6959 15.34819933  5570
KUIPER-00134            
1 65960U 25228P   25313.26236336  .00047631  00000+0  13956-2 0  9996
2 65960  51.8772 181.9197 0004778 245.8478 114.2009 15.34730022  5276
KUIPER-00135            
1 65961U 25228Q   25315.21552850  .00042475  00000+0  12439-2 0  9992
2 65961  51.8784 172.5205 0004969 238.3149 121.7352 15.34797527  5570
KUIPER-00136            
1 65962U 25228R   25315.01298731  .00058843  00000+0  16997-2 0  9995
2 65962  51.8757 173.4084 0004571 220.4439 139.6207 15.35083391  5541
KUIPER-00137            
1 65963U 25228S   25315.01951555  .00046771  00000+0  13683-2 0  9992
2 65963  51.8774 173.4548 0005101 243.8541 116.1920 15.34783997  5549
KUIPER-00138            
1 65964U 25228T   25315.02298531  .00065995  00000+0  19331-2 0  9997
2 65964  51.8791 173.4718 0005746 265.6746  94.3583 15.34588642  5544
KUIPER-00140            
1 65965U 25228U   25315.02382431  .00047152  00000+0  13931-2 0  9996
2 65965  51.8752 173.4803 0006510 254.7727 105.2539 15.34464047  5540
KUIPER-00141            
1 65966U 25228V   25315.21114782  .00043832  00000+0  12748-2 0  9996
2 65966  51.8781 172.4822 0005678 240.5295 119.5125 15.34996143  5579
KUIPER-00146            
1 65967U 25228W   25315.01673980  .00038510  00000+0  11291-2 0  9994
2 65967  51.8816 173.4381 0006975 243.1863 116.8410 15.34795758  5544
KUIPER-00149            
1 65968U 25228X   25315.01313585  .00036649  00000+0  10634-2 0  9998
2 65968  51.8808 173.4084 0005954 240.4822 119.5570 15.35152460  5542
