CCSDS_OMM_VERS = 2.0
CREATION_DATE  = 
ORIGINATOR     = 

OBJECT_NAME    = KUIPER-00128
OBJECT_ID      = 2025-228L
CENTER_NAME    = EARTH
REF_FRAME      = TEME
TIME_SYSTEM    = UTC
MEAN_ELEMENT_THEORY = SGP/SGP4

EPOCH          = 2025-11-11T00:22:02.065152
MEAN_MOTION    = 15.34874025
ECCENTRICITY   = .00070632
INCLINATION    = 51.8816
RA_OF_ASC_NODE = 173.4279
ARG_OF_PERICENTER = 245.3966
MEAN_ANOMALY   = 114.6284

EPHEMERIS_TYPE = 0
CLASSIFICATION_TYPE = U
NORAD_CAT_ID   = 65957
ELEMENT_SET_NO = 999
REV_AT_EPOCH   = 554
BSTAR          = .12776382E-2
MEAN_MOTION_DOT = .4377E-3
MEAN_MOTION_DDOT = 0

CCSDS_OMM_VERS = 2.0
CREATION_DATE  = 
ORIGINATOR     = 

OBJECT_NAME    = KUIPER-00129
OBJECT_ID      = 2025-228M
CENTER_NAME    = EARTH
REF_FRAME      = TEME
TIME_SYSTEM    = UTC
MEAN_ELEMENT_THEORY = SGP/SGP4

EPOCH          = 2025-11-11T00:20:58.000416
MEAN_MOTION    = 15.35182084
ECCENTRICITY   = .00056982
INCLINATION    = 51.8810
RA_OF_ASC_NODE = 173.4211
ARG_OF_PERICENTER = 233.2393
MEAN_ANOMALY   = 126.8071

EPHEMERIS_TYPE = 0
CLASSIFICATION_TYPE = U
NORAD_CAT_ID   = 65958
ELEMENT_SET_NO = 999
REV_AT_EPOCH   = 554
BSTAR          = .17215316E-2
MEAN_MOTION_DOT = .59808E-3
MEAN_MOTION_DDOT = 0

CCSDS_OMM_VERS = 2.0
CREATION_DATE  = 
ORIGINATOR     = 

OBJECT_NAME    = KUIPER-00130
OBJECT_ID      = 2025-228N
CENTER_NAME    = EARTH
REF_FRAME      = TEME
TIME_SYSTEM    = UTC
MEAN_ELEMENT_THEORY = SGP/SGP4

EPOCH          = 2025-11-11T05:08:20.658336
MEAN_MOTION    = 15.34819933
ECCENTRICITY   = .00054684
INCLINATION    = 51.8744
RA_OF_ASC_NODE = 172.4989
ARG_OF_PERICENTER = 239.3488
MEAN_ANOMALY   = 120.6959

EPHEMERIS_TYPE = 0
CLASSIFICATION_TYPE = U
NORAD_CAT_ID   = 65959
ELEMENT_SET_NO = 999
REV_AT_EPOCH   = 557
BSTAR          = .23697954E-2
MEAN_MOTION_DOT = .81759E-3
MEAN_MOTION_DDOT = 0

CCSDS_OMM_VERS = 2.0
CREATION_DATE  = 
ORIGINATOR     = 

OBJECT_NAME    = KUIPER-00134
OBJECT_ID      = 2025-228P
CENTER_NAME    = EARTH
REF_FRAME      = TEME
TIME_SYSTEM    = UTC
MEAN_ELEMENT_THEORY = SGP/SGP4

EPOCH          = 2025-11-09T06:17:48.194304
MEAN_MOTION    = 15.34730022
ECCENTRICITY   = .00047786
INCLINATION    = 51.8772
RA_OF_ASC_NODE = 181.9197
ARG_OF_PERICENTER = 245.8478
MEAN_ANOMALY   = 114.2009

EPHEMERIS_TYPE = 0
CLASSIFICATION_TYPE = U
NORAD_CAT_ID   = 65960
ELEMENT_SET_NO = 999
REV_AT_EPOCH   = 527
BSTAR          = .13955696E-2
MEAN_MOTION_DOT = .47631E-3
MEAN_MOTION_DDOT = 0

CCSDS_OMM_VERS = 2.0
CREATION_DATE  = 
ORIGINATOR     = 

OBJECT_NAME    = KUIPER-00135
OBJECT_ID      = 2025-228Q
CENTER_NAME    = EARTH
REF_FRAME      = TEME
TIME_SYSTEM    = UTC
MEAN_ELEMENT_THEORY = SGP/SGP4

EPOCH          = 2025-11-11T05:10:21.662400
MEAN_MOTION    = 15.34797527
ECCENTRICITY   = .00049697
INCLINATION    = 51.8784
RA_OF_ASC_NODE = 172.5205
ARG_OF_PERICENTER = 238.3149
MEAN_ANOMALY   = 121.7352

EPHEMERIS_TYPE = 0
CLASSIFICATION_TYPE = U
NORAD_CAT_ID   = 65961
ELEMENT_SET_NO = 999
REV_AT_EPOCH   = 557
BSTAR          = .12438511E-2
MEAN_MOTION_DOT = .42475E-3
MEAN_MOTION_DDOT = 0

CCSDS_OMM_VERS = 2.0
CREATION_DATE  = 
ORIGINATOR     = 

OBJECT_NAME    = KUIPER-00136
OBJECT_ID      = 2025-228R
CENTER_NAME    = EARTH
REF_FRAME      = TEME
TIME_SYSTEM    = UTC
MEAN_ELEMENT_THEORY = SGP/SGP4

EPOCH          = 2025-11-11T00:18:42.103584
MEAN_MOTION    = 15.35083391
ECCENTRICITY   = .00045719
INCLINATION    = 51.8757
RA_OF_ASC_NODE = 173.4084
ARG_OF_PERICENTER = 220.4439
MEAN_ANOMALY   = 139.6207

EPHEMERIS_TYPE = 0
CLASSIFICATION_TYPE = U
NORAD_CAT_ID   = 65962
ELEMENT_SET_NO = 999
REV_AT_EPOCH   = 554
BSTAR          = .16997445E-2
MEAN_MOTION_DOT = .58843E-3
MEAN_MOTION_DDOT = 0

CCSDS_OMM_VERS = 2.0
CREATION_DATE  = 
ORIGINATOR     = 

OBJECT_NAME    = KUIPER-00137
OBJECT_ID      = 2025-228S
CENTER_NAME    = EARTH
REF_FRAME      = TEME
TIME_SYSTEM    = UTC
MEAN_ELEMENT_THEORY = SGP/SGP4

EPOCH          = 2025-11-11T00:28:06.143520
MEAN_MOTION    = 15.34783997
ECCENTRICITY   = .00051013
INCLINATION    = 51.8774
RA_OF_ASC_NODE = 173.4548
ARG_OF_PERICENTER = 243.8541
MEAN_ANOMALY   = 116.1920

EPHEMERIS_TYPE = 0
CLASSIFICATION_TYPE = U
NORAD_CAT_ID   = 65963
ELEMENT_SET_NO = 999
REV_AT_EPOCH   = 554
BSTAR          = .13683307E-2
MEAN_MOTION_DOT = .46771E-3
MEAN_MOTION_DDOT = 0

CCSDS_OMM_VERS = 2.0
CREATION_DATE  = 
ORIGINATOR     = 

OBJECT_NAME    = KUIPER-00138
OBJECT_ID      = 2025-228T
CENTER_NAME    = EARTH
REF_FRAME      = TEME
TIME_SYSTEM    = UTC
MEAN_ELEMENT_THEORY = SGP/SGP4

EPOCH          = 2025-11-11T00:33:05.930784
MEAN_MOTION    = 15.34588642
ECCENTRICITY   = .00057466
INCLINATION    = 51.8791
RA_OF_ASC_NODE = 173.4718
ARG_OF_PERICENTER = 265.6746
MEAN_ANOMALY   = 94.3583

EPHEMERIS_TYPE = 0
CLASSIFICATION_TYPE = U
NORAD_CAT_ID   = 65964
ELEMENT_SET_NO = 999
REV_AT_EPOCH   = 554
BSTAR          = .19330759E-2
MEAN_MOTION_DOT = .65995E-3
MEAN_MOTION_DDOT = 0

CCSDS_OMM_VERS = 2.0
CREATION_DATE  = 
ORIGINATOR     = 

OBJECT_NAME    = KUIPER-00140
OBJECT_ID      = 2025-228U
CENTER_NAME    = EARTH
REF_FRAME      = TEME
TIME_SYSTEM    = UTC
MEAN_ELEMENT_THEORY = SGP/SGP4

EPOCH          = 2025-11-11T00:34:18.420384
MEAN_MOTION    = 15.34464047
ECCENTRICITY   = .00065109
INCLINATION    = 51.8752
RA_OF_ASC_NODE = 173.4803
ARG_OF_PERICENTER = 254.7727
MEAN_ANOMALY   = 105.2539

EPHEMERIS_TYPE = 0
CLASSIFICATION_TYPE = U
NORAD_CAT_ID   = 65965
ELEMENT_SET_NO = 999
REV_AT_EPOCH   = 554
BSTAR          = .13930629E-2
MEAN_MOTION_DOT = .47152E-3
MEAN_MOTION_DDOT = 0

CCSDS_OMM_VERS = 2.0
CREATION_DATE  = 
ORIGINATOR     = 

OBJECT_NAME    = KUIPER-00141
OBJECT_ID      = 2025-228V
CENTER_NAME    = EARTH
REF_FRAME      = TEME
TIME_SYSTEM    = UTC
MEAN_ELEMENT_THEORY = SGP/SGP4

EPOCH          = 2025-11-11T05:04:03.171648
MEAN_MOTION    = 15.34996143
ECCENTRICITY   = .00056788
INCLINATION    = 51.8781
RA_OF_ASC_NODE = 172.4822
ARG_OF_PERICENTER = 240.5295
MEAN_ANOMALY   = 119.5125

EPHEMERIS_TYPE = 0
CLASSIFICATION_TYPE = U
NORAD_CAT_ID   = 65966
ELEMENT_SET_NO = 999
REV_AT_EPOCH   = 557
BSTAR          = .12747937E-2
MEAN_MOTION_DOT = .43832E-3
MEAN_MOTION_DDOT = 0

CCSDS_OMM_VERS = 2.0
CREATION_DATE  = 
ORIGINATOR     = 

OBJECT_NAME    = KUIPER-00146
OBJECT_ID      = 2025-228W
CENTER_NAME    = EARTH
REF_FRAME      = TEME
TIME_SYSTEM    = UTC
MEAN_ELEMENT_THEORY = SGP/SGP4

EPOCH          = 2025-11-11T00:24:06.318720
MEAN_MOTION    = 15.34795758
ECCENTRICITY   = .00069755
INCLINATION    = 51.8816
RA_OF_ASC_NODE = 173.4381
ARG_OF_PERICENTER = 243.1863
MEAN_ANOMALY   = 116.8410

EPHEMERIS_TYPE = 0
CLASSIFICATION_TYPE = U
NORAD_CAT_ID   = 65967
ELEMENT_SET_NO = 999
REV_AT_EPOCH   = 554
BSTAR          = .11290565E-2
MEAN_MOTION_DOT = .3851E-3
MEAN_MOTION_DDOT = 0

CCSDS_OMM_VERS = 2.0
CREATION_DATE  = 
ORIGINATOR     = 

OBJECT_NAME    = KUIPER-00149
OBJECT_ID      = 2025-228X
CENTER_NAME    = EARTH
REF_FRAME      = TEME
TIME_SYSTEM    = UTC
MEAN_ELEMENT_THEORY = SGP/SGP4

EPOCH          = 2025-11-11T00:18:54.937440
MEAN_MOTION    = 15.35152460
ECCENTRICITY   = .00059547
INCLINATION    = 51.8808
RA_OF_ASC_NODE = 173.4084
ARG_OF_PERICENTER = 240.4822
MEAN_ANOMALY   = 119.5570

EPHEMERIS_TYPE = 0
CLASSIFICATION_TYPE = U
NORAD_CAT_ID   = 65968
ELEMENT_SET_NO = 999
REV_AT_EPOCH   = 554
BSTAR          = .10633662E-2
MEAN_MOTION_DOT = .36649E-3
MEAN_MOTION_DDOT = 0

